{"fetched_at":"2026-07-11T09:24:40.506Z","source":"https://celestrak.org/NORAD/elements/gp.php?NAME=SPACEMOBILE&FORMAT=JSON","constellation":"ast-spacemobile","records":[{"OBJECT_NAME":"SPACEMOBILE-003","OBJECT_ID":"2024-163A","EPOCH":"2026-07-10T09:58:38.004096","CLASSIFICATION_TYPE":"U","MEAN_MOTION":15.20785714,"ECCENTRICITY":0.0005791,"INCLINATION":52.9615,"RA_OF_ASC_NODE":202.6161,"ARG_OF_PERICENTER":185.1427,"MEAN_ANOMALY":174.9508,"EPHEMERIS_TYPE":0,"NORAD_CAT_ID":61045,"ELEMENT_SET_NO":999,"REV_AT_EPOCH":10130,"BSTAR":0.000010927,"MEAN_MOTION_DOT":-8.4e-7,"MEAN_MOTION_DDOT":0},{"OBJECT_NAME":"SPACEMOBILE-005","OBJECT_ID":"2024-163B","EPOCH":"2026-07-10T23:46:34.862592","CLASSIFICATION_TYPE":"U","MEAN_MOTION":15.20765328,"ECCENTRICITY":0.0008771,"INCLINATION":52.9773,"RA_OF_ASC_NODE":199.9229,"ARG_OF_PERICENTER":183.0473,"MEAN_ANOMALY":177.0469,"EPHEMERIS_TYPE":0,"NORAD_CAT_ID":61046,"ELEMENT_SET_NO":999,"REV_AT_EPOCH":10138,"BSTAR":0.00016421,"MEAN_MOTION_DOT":0.00003338,"MEAN_MOTION_DDOT":0},{"OBJECT_NAME":"SPACEMOBILE-001","OBJECT_ID":"2024-163C","EPOCH":"2026-07-10T01:39:25.476768","CLASSIFICATION_TYPE":"U","MEAN_MOTION":15.20815495,"ECCENTRICITY":0.00075534,"INCLINATION":52.9749,"RA_OF_ASC_NODE":203.8741,"ARG_OF_PERICENTER":178.7608,"MEAN_ANOMALY":181.3406,"EPHEMERIS_TYPE":0,"NORAD_CAT_ID":61047,"ELEMENT_SET_NO":999,"REV_AT_EPOCH":10124,"BSTAR":0.000037894656,"MEAN_MOTION_DOT":0.00000518,"MEAN_MOTION_DDOT":0},{"OBJECT_NAME":"SPACEMOBILE-002","OBJECT_ID":"2024-163D","EPOCH":"2026-07-11T00:55:48.887328","CLASSIFICATION_TYPE":"U","MEAN_MOTION":15.20841812,"ECCENTRICITY":0.000662,"INCLINATION":52.9623,"RA_OF_ASC_NODE":199.4399,"ARG_OF_PERICENTER":180.999,"MEAN_ANOMALY":179.0992,"EPHEMERIS_TYPE":0,"NORAD_CAT_ID":61048,"ELEMENT_SET_NO":999,"REV_AT_EPOCH":10139,"BSTAR":0.00038281,"MEAN_MOTION_DOT":0.00008243,"MEAN_MOTION_DDOT":0},{"OBJECT_NAME":"SPACEMOBILE-004","OBJECT_ID":"2024-163E","EPOCH":"2026-07-09T13:48:46.986048","CLASSIFICATION_TYPE":"U","MEAN_MOTION":15.20814564,"ECCENTRICITY":0.00081135,"INCLINATION":52.9654,"RA_OF_ASC_NODE":205.9666,"ARG_OF_PERICENTER":207.5207,"MEAN_ANOMALY":152.5359,"EPHEMERIS_TYPE":0,"NORAD_CAT_ID":61049,"ELEMENT_SET_NO":999,"REV_AT_EPOCH":10117,"BSTAR":-0.00061664582,"MEAN_MOTION_DOT":-0.00014088,"MEAN_MOTION_DDOT":0},{"OBJECT_NAME":"SPACEMOBILE-001 DEB","OBJECT_ID":"2024-163F","EPOCH":"2026-07-10T08:41:28.610016","CLASSIFICATION_TYPE":"U","MEAN_MOTION":15.3532775,"ECCENTRICITY":0.00059319,"INCLINATION":52.9915,"RA_OF_ASC_NODE":170.2378,"ARG_OF_PERICENTER":233.9859,"MEAN_ANOMALY":126.0593,"EPHEMERIS_TYPE":0,"NORAD_CAT_ID":62369,"ELEMENT_SET_NO":999,"REV_AT_EPOCH":9006,"BSTAR":0.00021899532,"MEAN_MOTION_DOT":0.0000725,"MEAN_MOTION_DDOT":0},{"OBJECT_NAME":"SPACEMOBILE-002 DEB","OBJECT_ID":"2024-163G","EPOCH":"2026-07-10T07:13:06.999744","CLASSIFICATION_TYPE":"U","MEAN_MOTION":15.43693149,"ECCENTRICITY":0.00044927,"INCLINATION":52.9402,"RA_OF_ASC_NODE":154.9708,"ARG_OF_PERICENTER":267.6458,"MEAN_ANOMALY":92.4031,"EPHEMERIS_TYPE":0,"NORAD_CAT_ID":62370,"ELEMENT_SET_NO":999,"REV_AT_EPOCH":10193,"BSTAR":0.000366286,"MEAN_MOTION_DOT":0.00016405,"MEAN_MOTION_DDOT":0},{"OBJECT_NAME":"SPACEMOBILE-003 DEB","OBJECT_ID":"2024-163H","EPOCH":"2026-07-08T15:24:03.686112","CLASSIFICATION_TYPE":"U","MEAN_MOTION":15.41385961,"ECCENTRICITY":0.00056757,"INCLINATION":52.9682,"RA_OF_ASC_NODE":169.6526,"ARG_OF_PERICENTER":212.5674,"MEAN_ANOMALY":147.498,"EPHEMERIS_TYPE":0,"NORAD_CAT_ID":62371,"ELEMENT_SET_NO":999,"REV_AT_EPOCH":9519,"BSTAR":0.00034382737,"MEAN_MOTION_DOT":0.00014206,"MEAN_MOTION_DDOT":0},{"OBJECT_NAME":"SPACEMOBILE-004 DEB","OBJECT_ID":"2024-163J","EPOCH":"2026-07-10T06:41:22.284096","CLASSIFICATION_TYPE":"U","MEAN_MOTION":15.40670437,"ECCENTRICITY":0.0002842,"INCLINATION":52.9822,"RA_OF_ASC_NODE":161.5022,"ARG_OF_PERICENTER":241.7246,"MEAN_ANOMALY":118.347,"EPHEMERIS_TYPE":0,"NORAD_CAT_ID":62372,"ELEMENT_SET_NO":999,"REV_AT_EPOCH":9851,"BSTAR":0.00027467878,"MEAN_MOTION_DOT":0.00010988,"MEAN_MOTION_DDOT":0},{"OBJECT_NAME":"SPACEMOBILE-005 DEB","OBJECT_ID":"2024-163K","EPOCH":"2026-07-09T23:47:30.735744","CLASSIFICATION_TYPE":"U","MEAN_MOTION":15.34590181,"ECCENTRICITY":0.00058883,"INCLINATION":52.9723,"RA_OF_ASC_NODE":176.8636,"ARG_OF_PERICENTER":210.3831,"MEAN_ANOMALY":149.6829,"EPHEMERIS_TYPE":0,"NORAD_CAT_ID":62373,"ELEMENT_SET_NO":999,"REV_AT_EPOCH":10162,"BSTAR":0.00020017823,"MEAN_MOTION_DOT":0.00006434,"MEAN_MOTION_DDOT":0},{"OBJECT_NAME":"SPACEMOBILE-006","OBJECT_ID":"2025-309A","EPOCH":"2026-07-10T11:20:22.800768","CLASSIFICATION_TYPE":"U","MEAN_MOTION":15.18647033,"ECCENTRICITY":0.0010446,"INCLINATION":52.9937,"RA_OF_ASC_NODE":224.9712,"ARG_OF_PERICENTER":200.1439,"MEAN_ANOMALY":159.9144,"EPHEMERIS_TYPE":0,"NORAD_CAT_ID":67232,"ELEMENT_SET_NO":999,"REV_AT_EPOCH":3013,"BSTAR":0.000025498,"MEAN_MOTION_DOT":0.00000213,"MEAN_MOTION_DDOT":0},{"OBJECT_NAME":"SPACEMOBILE-008","OBJECT_ID":"2026-139A","EPOCH":"2026-07-10T22:11:28.792320","CLASSIFICATION_TYPE":"U","MEAN_MOTION":15.12798577,"ECCENTRICITY":0.0004851,"INCLINATION":52.9942,"RA_OF_ASC_NODE":154.796,"ARG_OF_PERICENTER":46.4367,"MEAN_ANOMALY":313.7027,"EPHEMERIS_TYPE":0,"NORAD_CAT_ID":69589,"ELEMENT_SET_NO":999,"REV_AT_EPOCH":357,"BSTAR":0.000024411,"MEAN_MOTION_DOT":0.00000132,"MEAN_MOTION_DDOT":0},{"OBJECT_NAME":"SPACEMOBILE-009","OBJECT_ID":"2026-139B","EPOCH":"2026-07-10T22:13:52.273344","CLASSIFICATION_TYPE":"U","MEAN_MOTION":15.12691782,"ECCENTRICITY":0.000509,"INCLINATION":52.9932,"RA_OF_ASC_NODE":154.8015,"ARG_OF_PERICENTER":41.8205,"MEAN_ANOMALY":318.3174,"EPHEMERIS_TYPE":0,"NORAD_CAT_ID":69590,"ELEMENT_SET_NO":999,"REV_AT_EPOCH":357,"BSTAR":0.000021885,"MEAN_MOTION_DOT":8.6e-7,"MEAN_MOTION_DDOT":0},{"OBJECT_NAME":"SPACEMOBILE-010","OBJECT_ID":"2026-139C","EPOCH":"2026-07-10T22:17:40.116192","CLASSIFICATION_TYPE":"U","MEAN_MOTION":15.12522765,"ECCENTRICITY":0.0004992,"INCLINATION":52.9937,"RA_OF_ASC_NODE":154.8204,"ARG_OF_PERICENTER":33.2635,"MEAN_ANOMALY":326.8669,"EPHEMERIS_TYPE":0,"NORAD_CAT_ID":69591,"ELEMENT_SET_NO":999,"REV_AT_EPOCH":358,"BSTAR":0.000019202,"MEAN_MOTION_DOT":3.8e-7,"MEAN_MOTION_DDOT":0}]}
